{
  "type": "FeatureCollection",
  "features": [
    {
      "type": "Feature",
      "properties": {
        "norad_id": 37535,
        "name": "COSMOS 2251 DEB",
        "group": "cosmos-2251-debris",
        "lat": 33.056074400372324,
        "lon": 55.4498467581213,
        "alt_km": 711.3394014289524,
        "timestamp": "2025-12-27T20:30:59.677747+00:00",
        "meta_object_name": "COSMOS 2251 DEB",
        "meta_object_id": "1993-036BNQ",
        "meta_epoch": "2025-12-27T12:26:57.154848",
        "meta_mean_motion": 14.58550918,
        "meta_eccentricity": 0.0026895,
        "meta_inclination": 74.0236,
        "meta_ra_of_asc_node": 45.3445,
        "meta_arg_of_pericenter": 181.8861,
        "meta_mean_anomaly": 248.6667,
        "meta_ephemeris_type": 0,
        "meta_classification_type": "U",
        "meta_norad_cat_id": 37535,
        "meta_element_set_no": 999,
        "meta_rev_at_epoch": 85540,
        "meta_bstar": 0.00071645,
        "meta_mean_motion_dot": 3.32e-05,
        "meta_mean_motion_ddot": 0,
        "tle_line1": "1 37535U 93036BNQ 25361.51871707  .00003320  00000+0  71645-3 0  9990",
        "tle_line2": "2 37535  74.0236  45.3445 0026895 181.8861 248.6667 14.58550918855402"
      },
      "geometry": {
        "type": "Point",
        "coordinates": [
          55.4498467581213,
          33.056074400372324
        ]
      }
    },
    {
      "type": "Feature",
      "properties": {
        "norad_id": 37537,
        "name": "COSMOS 2251 DEB",
        "group": "cosmos-2251-debris",
        "lat": 15.068696168575137,
        "lon": 52.84256585744063,
        "alt_km": 798.8507352859069,
        "timestamp": "2025-12-27T20:30:59.677757+00:00",
        "meta_object_name": "COSMOS 2251 DEB",
        "meta_object_id": "1993-036BNS",
        "meta_epoch": "2025-12-26T23:42:52.766208",
        "meta_mean_motion": 14.37510306,
        "meta_eccentricity": 0.0050921,
        "meta_inclination": 74.011,
        "meta_ra_of_asc_node": 238.8669,
        "meta_arg_of_pericenter": 15.3956,
        "meta_mean_anomaly": 344.8732,
        "meta_ephemeris_type": 0,
        "meta_classification_type": "U",
        "meta_norad_cat_id": 37537,
        "meta_element_set_no": 999,
        "meta_rev_at_epoch": 85238,
        "meta_bstar": 0.00022011,
        "meta_mean_motion_dot": 6.43e-06,
        "meta_mean_motion_ddot": 0,
        "tle_line1": "1 37537U 93036BNS 25360.98811072  .00000643  00000+0  22011-3 0  9999",
        "tle_line2": "2 37537  74.0110 238.8669 0050921  15.3956 344.8732 14.37510306852385"
      },
      "geometry": {
        "type": "Point",
        "coordinates": [
          52.84256585744063,
          15.068696168575137
        ]
      }
    },
    {
      "type": "Feature",
      "properties": {
        "norad_id": 37546,
        "name": "COSMOS 2251 DEB",
        "group": "cosmos-2251-debris",
        "lat": 68.84642515979228,
        "lon": 115.94565515323532,
        "alt_km": 615.2939398554345,
        "timestamp": "2025-12-27T20:30:59.677768+00:00",
        "meta_object_name": "COSMOS 2251 DEB",
        "meta_object_id": "1993-036BPB",
        "meta_epoch": "2025-12-25T04:56:56.302944",
        "meta_mean_motion": 14.80966305,
        "meta_eccentricity": 0.0005402,
        "meta_inclination": 74.0212,
        "meta_ra_of_asc_node": 73.3979,
        "meta_arg_of_pericenter": 64.6896,
        "meta_mean_anomaly": 295.4839,
        "meta_ephemeris_type": 0,
        "meta_classification_type": "U",
        "meta_norad_cat_id": 37546,
        "meta_element_set_no": 999,
        "meta_rev_at_epoch": 66072,
        "meta_bstar": 0.0024894,
        "meta_mean_motion_dot": 0.000193,
        "meta_mean_motion_ddot": 0,
        "tle_line1": "1 37546U 93036BPB 25359.20620721  .00019300  00000+0  24894-2 0  9991",
        "tle_line2": "2 37546  74.0212  73.3979 0005402  64.6896 295.4839 14.80966305660724"
      },
      "geometry": {
        "type": "Point",
        "coordinates": [
          115.94565515323532,
          68.84642515979228
        ]
      }
    },
    {
      "type": "Feature",
      "properties": {
        "norad_id": 37959,
        "name": "COSMOS 2251 DEB",
        "group": "cosmos-2251-debris",
        "lat": 55.78159680654606,
        "lon": -176.7999697105954,
        "alt_km": 665.6193062950051,
        "timestamp": "2025-12-27T20:30:59.677778+00:00",
        "meta_object_name": "COSMOS 2251 DEB",
        "meta_object_id": "1993-036BPJ",
        "meta_epoch": "2025-12-27T01:59:43.594944",
        "meta_mean_motion": 14.58228434,
        "meta_eccentricity": 0.00568255,
        "meta_inclination": 74.0105,
        "meta_ra_of_asc_node": 29.6076,
        "meta_arg_of_pericenter": 169.1851,
        "meta_mean_anomaly": 222.3398,
        "meta_ephemeris_type": 0,
        "meta_classification_type": "U",
        "meta_norad_cat_id": 37959,
        "meta_element_set_no": 999,
        "meta_rev_at_epoch": 80336,
        "meta_bstar": 0.00067581714,
        "meta_mean_motion_dot": 3.161e-05,
        "meta_mean_motion_ddot": 0,
        "tle_line1": "1 37959U 93036BPJ 25361.08314346  .00003161  00000+0  67582-3 0  9991",
        "tle_line2": "2 37959  74.0105  29.6076 0056825 169.1851 222.3398 14.58228434803369"
      },
      "geometry": {
        "type": "Point",
        "coordinates": [
          -176.7999697105954,
          55.78159680654606
        ]
      }
    },
    {
      "type": "Feature",
      "properties": {
        "norad_id": 37960,
        "name": "COSMOS 2251 DEB",
        "group": "cosmos-2251-debris",
        "lat": 53.93289616574622,
        "lon": -42.70012680408984,
        "alt_km": 749.4857770866583,
        "timestamp": "2025-12-27T20:30:59.677788+00:00",
        "meta_object_name": "COSMOS 2251 DEB",
        "meta_object_id": "1993-036BPK",
        "meta_epoch": "2025-12-23T05:04:36.493536",
        "meta_mean_motion": 14.07887566,
        "meta_eccentricity": 0.02481157,
        "meta_inclination": 74.0591,
        "meta_ra_of_asc_node": 168.5402,
        "meta_arg_of_pericenter": 184.7073,
        "meta_mean_anomaly": 175.1734,
        "meta_ephemeris_type": 0,
        "meta_classification_type": "U",
        "meta_norad_cat_id": 37960,
        "meta_element_set_no": 999,
        "meta_rev_at_epoch": 77553,
        "meta_bstar": 0.0007466601,
        "meta_mean_motion_dot": 1.655e-05,
        "meta_mean_motion_ddot": 0,
        "tle_line1": "1 37960U 93036BPK 25357.21153349  .00001655  00000+0  74666-3 0  9994",
        "tle_line2": "2 37960  74.0591 168.5402 0248115 184.7073 175.1734 14.07887566775537"
      },
      "geometry": {
        "type": "Point",
        "coordinates": [
          -42.70012680408984,
          53.93289616574622
        ]
      }
    },
    {
      "type": "Feature",
      "properties": {
        "norad_id": 37961,
        "name": "COSMOS 2251 DEB",
        "group": "cosmos-2251-debris",
        "lat": -0.19724337151843377,
        "lon": -71.57296442339401,
        "alt_km": 672.9802111326944,
        "timestamp": "2025-12-27T20:30:59.677798+00:00",
        "meta_object_name": "COSMOS 2251 DEB",
        "meta_object_id": "1993-036BPL",
        "meta_epoch": "2025-12-13T03:18:27.462240",
        "meta_mean_motion": 14.57979799,
        "meta_eccentricity": 0.00406759,
        "meta_inclination": 74.0407,
        "meta_ra_of_asc_node": 136.3488,
        "meta_arg_of_pericenter": 216.8805,
        "meta_mean_anomaly": 142.9561,
        "meta_ephemeris_type": 0,
        "meta_classification_type": "U",
        "meta_norad_cat_id": 37961,
        "meta_element_set_no": 999,
        "meta_rev_at_epoch": 80071,
        "meta_bstar": 0.001729191,
        "meta_mean_motion_dot": 8.011e-05,
        "meta_mean_motion_ddot": 0,
        "tle_line1": "1 37961U 93036BPL 25347.13781785  .00008011  00000+0  17292-2 0  9990",
        "tle_line2": "2 37961  74.0407 136.3488 0040675 216.8805 142.9561 14.57979799800716"
      },
      "geometry": {
        "type": "Point",
        "coordinates": [
          -71.57296442339401,
          -0.19724337151843377
        ]
      }
    },
    {
      "type": "Feature",
      "properties": {
        "norad_id": 37966,
        "name": "COSMOS 2251 DEB",
        "group": "cosmos-2251-debris",
        "lat": 44.46828664466401,
        "lon": -144.53905009670135,
        "alt_km": 512.7989744330243,
        "timestamp": "2025-12-27T20:30:59.677808+00:00",
        "meta_object_name": "COSMOS 2251 DEB",
        "meta_object_id": "1993-036BPR",
        "meta_epoch": "2025-12-27T06:02:19.645728",
        "meta_mean_motion": 15.14050196,
        "meta_eccentricity": 0.0010193,
        "meta_inclination": 73.9783,
        "meta_ra_of_asc_node": 200.334,
        "meta_arg_of_pericenter": 64.4117,
        "meta_mean_anomaly": 295.8129,
        "meta_ephemeris_type": 0,
        "meta_classification_type": "U",
        "meta_norad_cat_id": 37966,
        "meta_element_set_no": 999,
        "meta_rev_at_epoch": 85562,
        "meta_bstar": 0.0030629,
        "meta_mean_motion_dot": 0.00056165,
        "meta_mean_motion_ddot": 0,
        "tle_line1": "1 37966U 93036BPR 25361.25161627  .00056165  00000+0  30629-2 0  9993",
        "tle_line2": "2 37966  73.9783 200.3340 0010193  64.4117 295.8129 15.14050196855623"
      },
      "geometry": {
        "type": "Point",
        "coordinates": [
          -144.53905009670135,
          44.46828664466401
        ]
      }
    }
  ]
}